[{"OBJECT_NAME":"OBJECT V","OBJECT_ID":"2023-085V","EPOCH":"2026-03-09T21:44:00.165408","MEAN_MOTION":15.30745852,"ECCENTRICITY":0.00069081,"INCLINATION":97.4843,"RA_OF_ASC_NODE":179.3833,"ARG_OF_PERICENTER":71.0503,"MEAN_ANOMALY":289.1485,"EPHEMERIS_TYPE":0,"CLASSIFICATION_TYPE":"U","NORAD_CAT_ID":57023,"ELEMENT_SET_NO":999,"REV_AT_EPOCH":15149,"BSTAR":0.00067780507,"MEAN_MOTION_DOT":0.00020109,"MEAN_MOTION_DDOT":0},{"OBJECT_NAME":"STARLINK-31811","OBJECT_ID":"2024-112P","EPOCH":"2026-03-09T10:34:28.495776","MEAN_MOTION":15.30197384,"ECCENTRICITY":0.00012078,"INCLINATION":53.1604,"RA_OF_ASC_NODE":79.4897,"ARG_OF_PERICENTER":84.2619,"MEAN_ANOMALY":275.8519,"EPHEMERIS_TYPE":0,"CLASSIFICATION_TYPE":"U","NORAD_CAT_ID":60051,"ELEMENT_SET_NO":999,"REV_AT_EPOCH":9855,"BSTAR":5.1426985e-5,"MEAN_MOTION_DOT":1.164e-5,"MEAN_MOTION_DDOT":0}]
